{
  "type": "FeatureCollection",
  "features": [
    {
      "type": "Feature",
      "properties": {
        "norad_id": 34003,
        "name": "COSMOS 2251 DEB",
        "group": "cosmos-2251-debris",
        "lat": 20.440531287867852,
        "lon": 85.49329008911798,
        "alt_km": 1092.9491873715215,
        "timestamp": "2025-12-20T18:51:32.106519+00:00",
        "meta_object_name": "COSMOS 2251 DEB",
        "meta_object_id": "1993-036GN",
        "meta_epoch": "2025-12-20T04:14:07.272384",
        "meta_mean_motion": 13.84190171,
        "meta_eccentricity": 0.02749023,
        "meta_inclination": 74.0776,
        "meta_ra_of_asc_node": 272.6258,
        "meta_arg_of_pericenter": 22.9254,
        "meta_mean_anomaly": 338.3868,
        "meta_ephemeris_type": 0,
        "meta_classification_type": "U",
        "meta_norad_cat_id": 34003,
        "meta_element_set_no": 999,
        "meta_rev_at_epoch": 84528,
        "meta_bstar": 0.0014188071,
        "meta_mean_motion_dot": 2.098e-05,
        "meta_mean_motion_ddot": 0,
        "tle_line1": "1 34003U 93036GN  25354.17647306  .00002098  00000+0  14188-2 0  9996",
        "tle_line2": "2 34003  74.0776 272.6258 0274902  22.9254 338.3868 13.84190171845284"
      },
      "geometry": {
        "type": "Point",
        "coordinates": [
          85.49329008911798,
          20.440531287867852
        ]
      }
    },
    {
      "type": "Feature",
      "properties": {
        "norad_id": 34004,
        "name": "COSMOS 2251 DEB",
        "group": "cosmos-2251-debris",
        "lat": -49.41823726426016,
        "lon": 137.5466643120885,
        "alt_km": 729.7690385704163,
        "timestamp": "2025-12-20T18:51:32.106529+00:00",
        "meta_object_name": "COSMOS 2251 DEB",
        "meta_object_id": "1993-036GP",
        "meta_epoch": "2025-12-19T05:20:10.228704",
        "meta_mean_motion": 14.49065638,
        "meta_eccentricity": 0.0033435,
        "meta_inclination": 74.0356,
        "meta_ra_of_asc_node": 300.9531,
        "meta_arg_of_pericenter": 312.416,
        "meta_mean_anomaly": 47.4172,
        "meta_ephemeris_type": 0,
        "meta_classification_type": "U",
        "meta_norad_cat_id": 34004,
        "meta_element_set_no": 999,
        "meta_rev_at_epoch": 88124,
        "meta_bstar": 0.00086157,
        "meta_mean_motion_dot": 3.268e-05,
        "meta_mean_motion_ddot": 0,
        "tle_line1": "1 34004U 93036GP  25353.22234061  .00003268  00000+0  86157-3 0  9998",
        "tle_line2": "2 34004  74.0356 300.9531 0033435 312.4160  47.4172 14.49065638881248"
      },
      "geometry": {
        "type": "Point",
        "coordinates": [
          137.5466643120885,
          -49.41823726426016
        ]
      }
    },
    {
      "type": "Feature",
      "properties": {
        "norad_id": 34005,
        "name": "COSMOS 2251 DEB",
        "group": "cosmos-2251-debris",
        "lat": -66.87509182313042,
        "lon": 60.84629312115228,
        "alt_km": 757.4069461483423,
        "timestamp": "2025-12-20T18:51:32.106540+00:00",
        "meta_object_name": "COSMOS 2251 DEB",
        "meta_object_id": "1993-036GQ",
        "meta_epoch": "2025-12-19T07:28:53.752800",
        "meta_mean_motion": 14.4030881,
        "meta_eccentricity": 0.0021069,
        "meta_inclination": 74.0437,
        "meta_ra_of_asc_node": 201.5051,
        "meta_arg_of_pericenter": 318.6209,
        "meta_mean_anomaly": 214.5502,
        "meta_ephemeris_type": 0,
        "meta_classification_type": "U",
        "meta_norad_cat_id": 34005,
        "meta_element_set_no": 999,
        "meta_rev_at_epoch": 88473,
        "meta_bstar": 8.2213e-05,
        "meta_mean_motion_dot": 2.35e-06,
        "meta_mean_motion_ddot": 0,
        "tle_line1": "1 34005U 93036GQ  25353.31173325  .00000235  00000+0  82213-4 0  9995",
        "tle_line2": "2 34005  74.0437 201.5051 0021069 318.6209 214.5502 14.40308810884738"
      },
      "geometry": {
        "type": "Point",
        "coordinates": [
          60.84629312115228,
          -66.87509182313042
        ]
      }
    },
    {
      "type": "Feature",
      "properties": {
        "norad_id": 34006,
        "name": "COSMOS 2251 DEB",
        "group": "cosmos-2251-debris",
        "lat": -54.80973208246334,
        "lon": 103.15526549386274,
        "alt_km": 592.4006619790725,
        "timestamp": "2025-12-20T18:51:32.106551+00:00",
        "meta_object_name": "COSMOS 2251 DEB",
        "meta_object_id": "1993-036GR",
        "meta_epoch": "2025-12-20T11:22:33.763296",
        "meta_mean_motion": 14.95235799,
        "meta_eccentricity": 0.00113343,
        "meta_inclination": 74.0536,
        "meta_ra_of_asc_node": 127.7042,
        "meta_arg_of_pericenter": 64.0872,
        "meta_mean_anomaly": 0.2864,
        "meta_ephemeris_type": 0,
        "meta_classification_type": "U",
        "meta_norad_cat_id": 34006,
        "meta_element_set_no": 999,
        "meta_rev_at_epoch": 88784,
        "meta_bstar": 0.0021723347,
        "meta_mean_motion_dot": 0.00023977,
        "meta_mean_motion_ddot": 0,
        "tle_line1": "1 34006U 93036GR  25354.47400189  .00023977  00000+0  21723-2 0  9990",
        "tle_line2": "2 34006  74.0536 127.7042 0011334  64.0872   0.2864 14.95235799887841"
      },
      "geometry": {
        "type": "Point",
        "coordinates": [
          103.15526549386274,
          -54.80973208246334
        ]
      }
    },
    {
      "type": "Feature",
      "properties": {
        "norad_id": 34007,
        "name": "COSMOS 2251 DEB",
        "group": "cosmos-2251-debris",
        "lat": 73.27195504411213,
        "lon": 43.86978060950943,
        "alt_km": 640.638880852066,
        "timestamp": "2025-12-20T18:51:32.106561+00:00",
        "meta_object_name": "COSMOS 2251 DEB",
        "meta_object_id": "1993-036GS",
        "meta_epoch": "2025-12-20T05:21:39.955968",
        "meta_mean_motion": 14.64833555,
        "meta_eccentricity": 0.0044242,
        "meta_inclination": 74.0189,
        "meta_ra_of_asc_node": 332.4894,
        "meta_arg_of_pericenter": 104.9698,
        "meta_mean_anomaly": 255.6374,
        "meta_ephemeris_type": 0,
        "meta_classification_type": "U",
        "meta_norad_cat_id": 34007,
        "meta_element_set_no": 999,
        "meta_rev_at_epoch": 89189,
        "meta_bstar": 0.00047353,
        "meta_mean_motion_dot": 2.534e-05,
        "meta_mean_motion_ddot": 0,
        "tle_line1": "1 34007U 93036GS  25354.22337912  .00002534  00000+0  47353-3 0  9991",
        "tle_line2": "2 34007  74.0189 332.4894 0044242 104.9698 255.6374 14.64833555891892"
      },
      "geometry": {
        "type": "Point",
        "coordinates": [
          43.86978060950943,
          73.27195504411213
        ]
      }
    },
    {
      "type": "Feature",
      "properties": {
        "norad_id": 34008,
        "name": "COSMOS 2251 DEB",
        "group": "cosmos-2251-debris",
        "lat": -44.82064106362098,
        "lon": -60.715050900438776,
        "alt_km": 770.01706925296,
        "timestamp": "2025-12-20T18:51:32.106571+00:00",
        "meta_object_name": "COSMOS 2251 DEB",
        "meta_object_id": "1993-036GT",
        "meta_epoch": "2025-12-20T09:36:02.300832",
        "meta_mean_motion": 14.33151114,
        "meta_eccentricity": 0.00245577,
        "meta_inclination": 74.0345,
        "meta_ra_of_asc_node": 316.5181,
        "meta_arg_of_pericenter": 310.4955,
        "meta_mean_anomaly": 172.938,
        "meta_ephemeris_type": 0,
        "meta_classification_type": "U",
        "meta_norad_cat_id": 34008,
        "meta_element_set_no": 999,
        "meta_rev_at_epoch": 88074,
        "meta_bstar": 8.7255423e-05,
        "meta_mean_motion_dot": 2.14e-06,
        "meta_mean_motion_ddot": 0,
        "tle_line1": "1 34008U 93036GT  25354.40002663  .00000214  00000+0  87255-4 0  9993",
        "tle_line2": "2 34008  74.0345 316.5181 0024557 310.4955 172.9380 14.33151114880746"
      },
      "geometry": {
        "type": "Point",
        "coordinates": [
          -60.715050900438776,
          -44.82064106362098
        ]
      }
    },
    {
      "type": "Feature",
      "properties": {
        "norad_id": 34009,
        "name": "COSMOS 2251 DEB",
        "group": "cosmos-2251-debris",
        "lat": -8.876229834476328,
        "lon": -40.32955072968207,
        "alt_km": 769.639845365532,
        "timestamp": "2025-12-20T18:51:32.106582+00:00",
        "meta_object_name": "COSMOS 2251 DEB",
        "meta_object_id": "1993-036GU",
        "meta_epoch": "2025-12-20T09:25:26.896224",
        "meta_mean_motion": 14.33227925,
        "meta_eccentricity": 0.00267932,
        "meta_inclination": 74.0374,
        "meta_ra_of_asc_node": 322.9505,
        "meta_arg_of_pericenter": 30.3083,
        "meta_mean_anomaly": 93.2477,
        "meta_ephemeris_type": 0,
        "meta_classification_type": "U",
        "meta_norad_cat_id": 34009,
        "meta_element_set_no": 999,
        "meta_rev_at_epoch": 88055,
        "meta_bstar": 0.00010774711,
        "meta_mean_motion_dot": 2.71e-06,
        "meta_mean_motion_ddot": 0,
        "tle_line1": "1 34009U 93036GU  25354.39267241  .00000271  00000+0  10775-3 0  9992",
        "tle_line2": "2 34009  74.0374 322.9505 0026793  30.3083  93.2477 14.33227925880559"
      },
      "geometry": {
        "type": "Point",
        "coordinates": [
          -40.32955072968207,
          -8.876229834476328
        ]
      }
    }
  ]
}